TITAN 4B R/B            
1 26474U 00047B   25322.87569423  .00003829  00000+0  24844-3 0  9998
2 26474  67.9906 351.8663 0041018 172.5786 187.5979 15.08542734376195
ENVISAT                 
1 27386U 02009A   25322.83678191  .00000194  00000+0  76745-4 0  9990
2 27386  98.3560 274.1880 0001249  81.7362 286.6650 14.38986853243234
IDEFIX & ARIANE 42P R/B 
1 27422U 02021B   25322.80899116  .00000428  00000+0  17944-3 0  9999
2 27422  98.5749 257.8149 0012205 149.1041 211.0862 14.30925748228169
AQUA                    
1 27424U 02022A   25322.94308439  .00001408  00000+0  29237-3 0  9997
2 27424  98.4001 283.4413 0000654  65.7887  27.3309 14.61728365252550
CZ-4B R/B               
1 27432U 02024C   25322.90091174  .00000079  00000+0  63995-4 0  9992
2 27432  98.9037  11.7517 0049721 338.7356 195.1495 14.14520952213571
MIDORI II (ADEOS-II)    
1 27597U 02056A   25322.84225637  .00000396  00000+0  17379-3 0  9991
2 27597  98.7597 275.6779 0001072  26.2865 333.8371 14.29182727194464
H-2A R/B                
1 27601U 02056E   25322.87510861  .00000375  00000+0  14589-3 0  9993
2 27601  98.3028 282.5871 0071139 131.1554 256.0631 14.33651153198230
CZ-4B R/B               
1 28059U 03049C   25322.93736977  .00000513  00000+0  12958-3 0  9991
2 28059  98.6769 308.6044 0047637 208.5307 151.3280 14.54878492170491
CZ-2C R/B               
1 28222U 04012C   25322.79171379  .00033388  00000+0  52376-3 0  9991
2 28222  97.7467  13.4727 0018529   2.2694 357.8639 15.53425054187001
SL-16 R/B               
1 28353U 04021B   25322.79110750  .00000336  00000+0  19947-3 0  9996
2 28353  70.9992 105.2196 0006350 224.9515 135.1094 14.14577621107150
CZ-4B R/B               
1 28415U 04035C   25322.97206557  .00008983  00000+0  33763-3 0  9999
2 28415  97.3638 353.6396 0033809   4.2179 355.9338 15.26850418163005
CZ-2C R/B               
1 28480U 04046B   25322.69719977  .00000235  00000+0  10201-3 0  9991
2 28480  98.1966 239.5725 0140527 122.8259 238.6545 14.26925579 92671
