CCSDS_OMM_VERS = 2.0
CREATION_DATE  = 
ORIGINATOR     = 

OBJECT_NAME    = TITAN 4B R/B
OBJECT_ID      = 2000-047B
CENTER_NAME    = EARTH
REF_FRAME      = TEME
TIME_SYSTEM    = UTC
MEAN_ELEMENT_THEORY = SGP/SGP4

EPOCH          = 2025-11-18T21:00:59.981472
MEAN_MOTION    = 15.08542734
ECCENTRICITY   = .00410182
INCLINATION    = 67.9906
RA_OF_ASC_NODE = 351.8663
ARG_OF_PERICENTER = 172.5786
MEAN_ANOMALY   = 187.5979

EPHEMERIS_TYPE = 0
CLASSIFICATION_TYPE = U
NORAD_CAT_ID   = 26474
ELEMENT_SET_NO = 999
REV_AT_EPOCH   = 37619
BSTAR          = .24843763E-3
MEAN_MOTION_DOT = .3829E-4
MEAN_MOTION_DDOT = 0

CCSDS_OMM_VERS = 2.0
CREATION_DATE  = 
ORIGINATOR     = 

OBJECT_NAME    = ENVISAT
OBJECT_ID      = 2002-009A
CENTER_NAME    = EARTH
REF_FRAME      = TEME
TIME_SYSTEM    = UTC
MEAN_ELEMENT_THEORY = SGP/SGP4

EPOCH          = 2025-11-18T20:04:57.957024
MEAN_MOTION    = 14.38986853
ECCENTRICITY   = .00012491
INCLINATION    = 98.3560
RA_OF_ASC_NODE = 274.1880
ARG_OF_PERICENTER = 81.7362
MEAN_ANOMALY   = 286.6650

EPHEMERIS_TYPE = 0
CLASSIFICATION_TYPE = U
NORAD_CAT_ID   = 27386
ELEMENT_SET_NO = 999
REV_AT_EPOCH   = 24323
BSTAR          = .76745298E-4
MEAN_MOTION_DOT = .194E-5
MEAN_MOTION_DDOT = 0

CCSDS_OMM_VERS = 2.0
CREATION_DATE  = 
ORIGINATOR     = 

OBJECT_NAME    = IDEFIX & ARIANE 42P R/B
OBJECT_ID      = 2002-021B
CENTER_NAME    = EARTH
REF_FRAME      = TEME
TIME_SYSTEM    = UTC
MEAN_ELEMENT_THEORY = SGP/SGP4

EPOCH          = 2025-11-18T19:24:56.836224
MEAN_MOTION    = 14.30925748
ECCENTRICITY   = .00122059
INCLINATION    = 98.5749
RA_OF_ASC_NODE = 257.8149
ARG_OF_PERICENTER = 149.1041
MEAN_ANOMALY   = 211.0862

EPHEMERIS_TYPE = 0
CLASSIFICATION_TYPE = U
NORAD_CAT_ID   = 27422
ELEMENT_SET_NO = 999
REV_AT_EPOCH   = 22816
BSTAR          = .17943539E-3
MEAN_MOTION_DOT = .428E-5
MEAN_MOTION_DDOT = 0

CCSDS_OMM_VERS = 2.0
CREATION_DATE  = 
ORIGINATOR     = 

OBJECT_NAME    = AQUA
OBJECT_ID      = 2002-022A
CENTER_NAME    = EARTH
REF_FRAME      = TEME
TIME_SYSTEM    = UTC
MEAN_ELEMENT_THEORY = SGP/SGP4

EPOCH          = 2025-11-18T22:38:02.491296
MEAN_MOTION    = 14.61728365
ECCENTRICITY   = .00006544
INCLINATION    = 98.4001
RA_OF_ASC_NODE = 283.4413
ARG_OF_PERICENTER = 65.7887
MEAN_ANOMALY   = 27.3309

EPHEMERIS_TYPE = 0
CLASSIFICATION_TYPE = U
NORAD_CAT_ID   = 27424
ELEMENT_SET_NO = 999
REV_AT_EPOCH   = 25255
BSTAR          = .29237167E-3
MEAN_MOTION_DOT = .1408E-4
MEAN_MOTION_DDOT = 0

CCSDS_OMM_VERS = 2.0
CREATION_DATE  = 
ORIGINATOR     = 

OBJECT_NAME    = CZ-4B R/B
OBJECT_ID      = 2002-024C
CENTER_NAME    = EARTH
REF_FRAME      = TEME
TIME_SYSTEM    = UTC
MEAN_ELEMENT_THEORY = SGP/SGP4

EPOCH          = 2025-11-18T21:37:18.774336
MEAN_MOTION    = 14.14520952
ECCENTRICITY   = .00497219
INCLINATION    = 98.9037
RA_OF_ASC_NODE = 11.7517
ARG_OF_PERICENTER = 338.7356
MEAN_ANOMALY   = 195.1495

EPHEMERIS_TYPE = 0
CLASSIFICATION_TYPE = U
NORAD_CAT_ID   = 27432
ELEMENT_SET_NO = 999
REV_AT_EPOCH   = 21357
BSTAR          = .63995262E-4
MEAN_MOTION_DOT = .79E-6
MEAN_MOTION_DDOT = 0

CCSDS_OMM_VERS = 2.0
CREATION_DATE  = 
ORIGINATOR     = 

OBJECT_NAME    = MIDORI II (ADEOS-II)
OBJECT_ID      = 2002-056A
CENTER_NAME    = EARTH
REF_FRAME      = TEME
TIME_SYSTEM    = UTC
MEAN_ELEMENT_THEORY = SGP/SGP4

EPOCH          = 2025-11-18T20:12:50.950368
MEAN_MOTION    = 14.29182727
ECCENTRICITY   = .00010722
INCLINATION    = 98.7597
RA_OF_ASC_NODE = 275.6779
ARG_OF_PERICENTER = 26.2865
MEAN_ANOMALY   = 333.8371

EPHEMERIS_TYPE = 0
CLASSIFICATION_TYPE = U
NORAD_CAT_ID   = 27597
ELEMENT_SET_NO = 999
REV_AT_EPOCH   = 19446
BSTAR          = .17378527E-3
MEAN_MOTION_DOT = .396E-5
MEAN_MOTION_DDOT = 0

CCSDS_OMM_VERS = 2.0
CREATION_DATE  = 
ORIGINATOR     = 

OBJECT_NAME    = H-2A R/B
OBJECT_ID      = 2002-056E
CENTER_NAME    = EARTH
REF_FRAME      = TEME
TIME_SYSTEM    = UTC
MEAN_ELEMENT_THEORY = SGP/SGP4

EPOCH          = 2025-11-18T21:00:09.383904
MEAN_MOTION    = 14.33651153
ECCENTRICITY   = .0071139
INCLINATION    = 98.3028
RA_OF_ASC_NODE = 282.5871
ARG_OF_PERICENTER = 131.1554
MEAN_ANOMALY   = 256.0631

EPHEMERIS_TYPE = 0
CLASSIFICATION_TYPE = U
NORAD_CAT_ID   = 27601
ELEMENT_SET_NO = 999
REV_AT_EPOCH   = 19823
BSTAR          = .14588673E-3
MEAN_MOTION_DOT = .375E-5
MEAN_MOTION_DDOT = 0

CCSDS_OMM_VERS = 2.0
CREATION_DATE  = 
ORIGINATOR     = 

OBJECT_NAME    = CZ-4B R/B
OBJECT_ID      = 2003-049C
CENTER_NAME    = EARTH
REF_FRAME      = TEME
TIME_SYSTEM    = UTC
MEAN_ELEMENT_THEORY = SGP/SGP4

EPOCH          = 2025-11-18T22:29:48.748128
MEAN_MOTION    = 14.54878492
ECCENTRICITY   = .00476371
INCLINATION    = 98.6769
RA_OF_ASC_NODE = 308.6044
ARG_OF_PERICENTER = 208.5307
MEAN_ANOMALY   = 151.3280

EPHEMERIS_TYPE = 0
CLASSIFICATION_TYPE = U
NORAD_CAT_ID   = 28059
ELEMENT_SET_NO = 999
REV_AT_EPOCH   = 17049
BSTAR          = .12958101E-3
MEAN_MOTION_DOT = .513E-5
MEAN_MOTION_DDOT = 0

CCSDS_OMM_VERS = 2.0
CREATION_DATE  = 
ORIGINATOR     = 

OBJECT_NAME    = CZ-2C R/B
OBJECT_ID      = 2004-012C
CENTER_NAME    = EARTH
REF_FRAME      = TEME
TIME_SYSTEM    = UTC
MEAN_ELEMENT_THEORY = SGP/SGP4

EPOCH          = 2025-11-18T19:00:04.071456
MEAN_MOTION    = 15.53425054
ECCENTRICITY   = .00185299
INCLINATION    = 97.7467
RA_OF_ASC_NODE = 13.4727
ARG_OF_PERICENTER = 2.2694
MEAN_ANOMALY   = 357.8639

EPHEMERIS_TYPE = 0
CLASSIFICATION_TYPE = U
NORAD_CAT_ID   = 28222
ELEMENT_SET_NO = 999
REV_AT_EPOCH   = 18700
BSTAR          = .52375748E-3
MEAN_MOTION_DOT = .33388E-3
MEAN_MOTION_DDOT = 0

CCSDS_OMM_VERS = 2.0
CREATION_DATE  = 
ORIGINATOR     = 

OBJECT_NAME    = SL-16 R/B
OBJECT_ID      = 2004-021B
CENTER_NAME    = EARTH
REF_FRAME      = TEME
TIME_SYSTEM    = UTC
MEAN_ELEMENT_THEORY = SGP/SGP4

EPOCH          = 2025-11-18T18:59:11.688000
MEAN_MOTION    = 14.14577621
ECCENTRICITY   = .00063507
INCLINATION    = 70.9992
RA_OF_ASC_NODE = 105.2196
ARG_OF_PERICENTER = 224.9515
MEAN_ANOMALY   = 135.1094

EPHEMERIS_TYPE = 0
CLASSIFICATION_TYPE = U
NORAD_CAT_ID   = 28353
ELEMENT_SET_NO = 999
REV_AT_EPOCH   = 10715
BSTAR          = .19947479E-3
MEAN_MOTION_DOT = .336E-5
MEAN_MOTION_DDOT = 0

CCSDS_OMM_VERS = 2.0
CREATION_DATE  = 
ORIGINATOR     = 

OBJECT_NAME    = CZ-4B R/B
OBJECT_ID      = 2004-035C
CENTER_NAME    = EARTH
REF_FRAME      = TEME
TIME_SYSTEM    = UTC
MEAN_ELEMENT_THEORY = SGP/SGP4

EPOCH          = 2025-11-18T23:19:46.465248
MEAN_MOTION    = 15.26850418
ECCENTRICITY   = .0033809
INCLINATION    = 97.3638
RA_OF_ASC_NODE = 353.6396
ARG_OF_PERICENTER = 4.2179
MEAN_ANOMALY   = 355.9338

EPHEMERIS_TYPE = 0
CLASSIFICATION_TYPE = U
NORAD_CAT_ID   = 28415
ELEMENT_SET_NO = 999
REV_AT_EPOCH   = 16300
BSTAR          = .33763222E-3
MEAN_MOTION_DOT = .8983E-4
MEAN_MOTION_DDOT = 0

CCSDS_OMM_VERS = 2.0
CREATION_DATE  = 
ORIGINATOR     = 

OBJECT_NAME    = CZ-2C R/B
OBJECT_ID      = 2004-046B
CENTER_NAME    = EARTH
REF_FRAME      = TEME
TIME_SYSTEM    = UTC
MEAN_ELEMENT_THEORY = SGP/SGP4

EPOCH          = 2025-11-18T16:43:58.060128
MEAN_MOTION    = 14.26925579
ECCENTRICITY   = .01405279
INCLINATION    = 98.1966
RA_OF_ASC_NODE = 239.5725
ARG_OF_PERICENTER = 122.8259
MEAN_ANOMALY   = 238.6545

EPHEMERIS_TYPE = 0
CLASSIFICATION_TYPE = U
NORAD_CAT_ID   = 28480
ELEMENT_SET_NO = 999
REV_AT_EPOCH   = 9267
BSTAR          = .10200984E-3
MEAN_MOTION_DOT = .235E-5
MEAN_MOTION_DDOT = 0

